      2.10          N: GNSS NAV DATA                        RINEX VERSION / TYPE
fic2rin                                 09/28/2024 00:59:01 PGM / RUN BY / DATE
                                                            END OF HEADER
16 24  9 27 17 59 44.0 -.169705133885D-03  .101181285572D-10  .000000000000D+00
     .520000000000D+02  .168125000000D+02  .473126850490D-08 -.264365265260D+01
     .849366188049D-06  .139783569612D-01  .558607280254D-05  .515361861801D+04
     .496784000000D+06  .126659870148D-06 -.211828913746D+01 -.137835741043D-06
     .960939416424D+00  .271343750000D+03  .845361441909D+00 -.792318717541D-08
    -.514307137242D-10  .100000000000D+01  .233300000000D+04  .000000000000D+00
     .240000000000D+01  .000000000000D+00 -.102445483208D-07  .520000000000D+02
     .489600000000D+06  .400000000000D+01
8  24  9 27 17 59 44.0  .366621650755D-03  .123918653117D-10  .000000000000D+00
     .430000000000D+02  .712500000000D+01  .457626204825D-08  .267548626202D+01
     .314787030220D-06  .970122159924D-02  .875256955624D-05  .515368851089D+04
     .496784000000D+06 -.115483999252D-06 -.119369816483D+01 -.121071934700D-06
     .951005655534D+00  .205750000000D+03  .370482075448D+00 -.796818904991D-08
    -.460733477113D-09  .100000000000D+01  .233300000000D+04  .000000000000D+00
     .240000000000D+01  .000000000000D+00  .465661287308D-08  .430000000000D+02
     .489600000000D+06  .400000000000D+01
2  24  9 27 18  0  0.0 -.349109526724D-03  .807176547823D-11  .000000000000D+00
     .640000000000D+02  .828437500000D+02  .398945189097D-08  .282932736214D+01
     .414438545704D-05  .161791993305D-01  .872090458870D-05  .515369692993D+04
     .496800000000D+06  .249594449997D-06 -.194833709023D+00  .115483999252D-06
     .967222762219D+00  .208781250000D+03 -.112700383786D+01 -.766889086866D-08
     .967897459671D-10  .100000000000D+01  .233300000000D+04  .000000000000D+00
     .240000000000D+01  .000000000000D+00 -.176951289177D-07  .640000000000D+02
     .489600000000D+06  .400000000000D+01
1  24  9 27 18  0  0.0  .186930876225D-03 -.100044417195D-10  .000000000000D+00
     .510000000000D+02  .205000000000D+02  .610704009702D-08 -.214756226135D+01
     .110641121864D-05  .134811751777D-01  .551901757717D-05  .515361258125D+04
     .496800000000D+06  .149011611938D-06 -.218953318502D+01 -.912696123123D-07
     .953633018369D+00  .269343750000D+03  .103576123056D+01 -.795854579109D-08
    -.185722021782D-10  .100000000000D+01  .233300000000D+04  .000000000000D+00
     .240000000000D+01  .630000000000D+02 -.195577740669D-07  .510000000000D+02
     .489600000000D+06  .400000000000D+01
5  24  9 27 18  0  0.0 -.187980476767D-03 -.125055521494D-11  .000000000000D+00
     .270000000000D+02  .684375000000D+01  .445839999597D-08  .298719640093D+01
     .137835741043D-06  .585183524527D-02  .293366611004D-05  .515367869377D+04
     .496800000000D+06  .856816768646D-07  .888687980073D+00 -.109896063805D-06
     .973015628155D+00  .330281250000D+03  .133072217314D+01 -.813498171178D-08
     .189293599124D-09  .100000000000D+01  .233300000000D+04  .000000000000D+00
     .240000000000D+01  .000000000000D+00 -.107102096081D-07  .270000000000D+02
     .489600000000D+06  .400000000000D+01
12 24  9 27 18  0  0.0 -.541146378964D-03 -.272848410532D-11  .000000000000D+00
     .200000000000D+02  .186562500000D+02  .487627454498D-08 -.869078853514D+00
     .983476638794D-06  .870759424288D-02  .554881989956D-05  .515358364296D+04
     .496800000000D+06 -.143423676491D-06 -.213601016343D+01  .912696123123D-07
     .961534863581D+00  .273000000000D+03  .146395034645D+01 -.833534720067D-08
    -.155720772109D-09  .100000000000D+01  .233300000000D+04  .000000000000D+00
     .240000000000D+01  .000000000000D+00 -.125728547573D-07  .200000000000D+02
     .489600000000D+06  .400000000000D+01
10 24  9 27 18  0  0.0 -.139292795211D-03 -.127329258248D-10  .000000000000D+00
     .310000000000D+02 -.151250000000D+02  .416231623432D-08 -.163992772022D+01
    -.772997736931D-06  .970014336053D-02  .255554914474D-05  .515368438530D+04
     .496800000000D+06  .113621354103D-06  .939094278098D+00 -.428408384323D-07
     .985716687308D+00  .337875000000D+03 -.237692437292D+01 -.803890628129D-08
     .261082303697D-09  .100000000000D+01  .233300000000D+04  .000000000000D+00
     .240000000000D+01  .000000000000D+00  .232830643654D-08  .310000000000D+02
     .489600000000D+06  .400000000000D+01
6  24  9 27 18  0  0.0  .140629708767D-05 -.267164068646D-10  .000000000000D+00
     .980000000000D+02  .684062500000D+02  .358872091320D-08  .769973020581D+00
     .368244946003D-05  .307666254230D-02  .832229852676D-05  .515370555687D+04
     .496800000000D+06  .353902578354D-07 -.938511145785D-01 -.968575477600D-07
     .989850118453D+00  .232000000000D+03 -.764915206612D+00 -.769424906779D-08
     .228938107620D-09  .100000000000D+01  .233300000000D+04  .000000000000D+00
     .340000000000D+01  .000000000000D+00  .372529029846D-08  .980000000000D+02
     .489600000000D+06  .400000000000D+01
3  24  9 27 18  0  0.0  .552174635231D-03  .125055521494D-10  .000000000000D+00
     .100000000000D+01 -.187500000000D+00  .430196490839D-08 -.717362252766D+00
     .152736902237D-06  .571865797974D-02  .305473804474D-05  .515365211105D+04
     .496800000000D+06 -.260770320892D-07  .941639015319D+00  .113621354103D-06
     .986073256035D+00  .339750000000D+03  .116175938038D+01 -.822605693400D-08
     .214294640518D-09  .100000000000D+01  .233300000000D+04  .000000000000D+00
     .240000000000D+01  .000000000000D+00  .139698386192D-08  .257000000000D+03
     .489600000000D+06  .400000000000D+01
7  24  9 27 18  0  0.0 -.331415794790D-04  .397903932026D-11  .000000000000D+00
     .610000000000D+02 -.346875000000D+01  .490841874106D-08 -.145301138821D+00
    -.596046447754D-07  .187484641792D-01  .982359051704D-05  .515360833168D+04
     .496800000000D+06 -.838190317154D-07  .303147205108D+01  .165775418282D-06
     .950784330658D+00  .186125000000D+03 -.209994178214D+01 -.841820779500D-08
     .185364864048D-09  .100000000000D+01  .233300000000D+04  .000000000000D+00
     .240000000000D+01  .000000000000D+00 -.107102096081D-07  .610000000000D+02
     .489600000000D+06  .400000000000D+01
4  24  9 27 18  0  0.0  .451533589512D-03  .693489710102D-11  .000000000000D+00
     .214000000000D+03 -.108218750000D+03  .447447209401D-08  .235914149624D+01
    -.546686351299D-05  .303202623036D-02  .774487853050D-05  .515371001625D+04
     .496800000000D+06 -.856816768646D-07  .201947229961D+01  .558793544769D-07
     .965640376398D+00  .234812500000D+03 -.300703746437D+01 -.801461955536D-08
    -.546451333320D-10  .100000000000D+01  .233300000000D+04  .000000000000D+00
     .240000000000D+01  .000000000000D+00 -.465661287308D-08  .470000000000D+03
     .489600000000D+06  .400000000000D+01
30 24  9 27 18  0  0.0 -.313255470246D-03  .727595761418D-11  .000000000000D+00
     .220000000000D+02  .218750000000D+00  .509735518245D-08 -.277466582603D+00
    -.745058059692D-07  .716841372196D-02  .971555709839D-05  .515358042526D+04
     .496800000000D+06 -.298023223877D-07  .303023677622D+01  .316649675369D-07
     .935939716160D+00  .177375000000D+03 -.244844467500D+01 -.831427489435D-08
     .173221501085D-09  .100000000000D+01  .233300000000D+04  .000000000000D+00
     .240000000000D+01  .000000000000D+00  .372529029846D-08  .220000000000D+02
     .489600000000D+06  .400000000000D+01
22 24  9 27 18  0  0.0 -.659334473312D-04 -.352429196937D-11  .000000000000D+00
     .560000000000D+02  .208125000000D+02  .469126683867D-08 -.312514672457D+01
     .113993883133D-05  .140591163654D-01  .550225377083D-05  .515368314362D+04
     .496800000000D+06  .100582838058D-06 -.211499405639D+01  .139698386192D-06
     .960279273178D+00  .274250000000D+03 -.111127986915D+01 -.788854287519D-08
    -.158578033983D-09  .100000000000D+01  .233300000000D+04  .000000000000D+00
     .240000000000D+01  .000000000000D+00 -.111758708954D-07  .560000000000D+02
     .489600000000D+06  .400000000000D+01
29 24  9 27 18  0  0.0 -.575088895857D-03  .250111042988D-11  .000000000000D+00
     .470000000000D+02  .140000000000D+02  .412481467223D-08  .258660006612D+01
     .782310962677D-06  .291820068378D-02  .882148742676D-05  .515376601791D+04
     .496800000000D+06  .372529029846D-08 -.108169402312D+01 -.186264514923D-07
     .969318698117D+00  .216250000000D+03  .267595687838D+01 -.774246536190D-08
    -.449304429619D-09  .100000000000D+01  .233300000000D+04  .000000000000D+00
     .240000000000D+01  .000000000000D+00 -.977888703346D-08  .470000000000D+02
     .489600000000D+06  .400000000000D+01
21 24  9 27 18  0  0.0  .100917182863D-03 -.795807864051D-12  .000000000000D+00
     .290000000000D+02  .879687500000D+02  .410231373498D-08  .247973420325D+01
     .452809035778D-05  .254005845636D-01  .879541039467D-05  .515365957069D+04
     .496800000000D+06  .109896063805D-06 -.202751483950D+00  .447034835815D-06
     .961466042063D+00  .203812500000D+03 -.513965237195D+00 -.774853704338D-08
    -.160720980388D-10  .100000000000D+01  .233300000000D+04  .000000000000D+00
     .240000000000D+01  .000000000000D+00 -.102445483208D-07  .290000000000D+02
     .489600000000D+06  .400000000000D+01
14 24  9 27 18  0  0.0  .505093950778D-03  .852651282912D-11  .000000000000D+00
     .370000000000D+02  .209062500000D+02  .512949937852D-08 -.994594961581D+00
     .985339283943D-06  .490537914447D-02  .553019344807D-05  .515368948364D+04
     .496800000000D+06  .134110450745D-06 -.218241247369D+01 -.949949026108D-07
     .944901040293D+00  .268250000000D+03 -.285404742562D+01 -.832284667997D-08
    -.116790579082D-09  .100000000000D+01  .233300000000D+04  .000000000000D+00
     .240000000000D+01  .000000000000D+00 -.791624188423D-08  .370000000000D+02
     .489600000000D+06  .400000000000D+01
